STARLINK-37892          
1 69485U 26131H   26187.61678124  .00109579  00000+0  56622-3 0  9998
2 69485  97.2849 209.0344 0000754  81.8627 278.2727 15.80794617  5236
STARLINK-37893          
1 69486U 26131J   26187.55271518  .00183522  00000+0  93924-3 0  9994
2 69486  97.2853 208.9693 0001379  94.8147 265.3279 15.80806533  5221
STARLINK-37842          
1 69487U 26131K   26188.58335648 -.02354208  00000+0 -18801-1 0  9998
2 69487  97.2853 210.0588 0001454  75.9317  16.3496 15.74530490  5282
STARLINK-37449          
1 69488U 26131L   26188.24753065  .00162181  00000+0  83027-3 0  9996
2 69488  97.2850 209.7079 0001174  39.6063 320.5291 15.80856085  5331
STARLINK-37831          
1 69489U 26131M   26188.58335648 -.02256970  00000+0 -20500-1 0  9996
2 69489  97.2845 210.0571 0001431  88.1139 355.6480 15.71376869  3926
STARLINK-37879          
1 69490U 26131N   26188.58335648 -.02458709  00000+0 -19190-1 0  9995
2 69490  97.2852 210.0625 0001861  78.1505  26.6186 15.75219170  5283
STARLINK-37856          
1 69491U 26131P   26188.00047326  .00343921  00000+0  17171-2 0  9999
2 69491  97.2847 209.4317 0001202 133.8142 226.3225 15.80934106  5296
STARLINK-37568          
1 69492U 26131Q   26188.58335648 -.02393721  00000+0 -19268-1 0  9995
2 69492  97.2853 210.0632 0001665  86.1819  26.5839 15.74410570  5373
STARLINK-37855          
1 69493U 26131R   26188.25067996  .00194754  00000+0  99590-3 0  9997
2 69493  97.2851 209.7032 0001551   0.3028 359.8240 15.80795086  5334
STARLINK-37854          
1 69494U 26131S   26188.58335648 -.02422503  00000+0 -15106-1 0  9995
2 69494  97.2846 210.0527 0001627  93.3789 351.8636 15.80154523  5340
STARLINK-37789          
1 69495U 26131T   26188.58335648 -.02383436  00000+0 -17583-1 0  9998
2 69495  97.2851 210.0712 0001821  88.7752  44.1778 15.76373519  5361
STARLINK-37839          
1 69496U 26131U   26188.58335648 -.02463846  00000+0 -16804-1 0  9998
2 69496  97.2847 210.0573 0001814  81.9638  15.0821 15.78252122  5344
STARLINK-37798          
1 69497U 26131V   26188.58335648 -.02412147  00000+0 -17633-1 0  9998
2 69497  97.2853 210.0740 0001764  87.7801  50.2671 15.76626425  5341
STARLINK-37853          
1 69498U 26131W   26188.49096361  .00215191  00000+0  10915-2 0  9998
2 69498  97.2855 209.9875 0000990  21.5254 338.6056 15.80919431  4119
STARLINK-37849          
1 69499U 26131X   26188.58335648 -.02439725  00000+0 -20488-1 0  9993
2 69499  97.2852 210.0750 0001698  88.7733  54.3225 15.73510797  5367
STARLINK-37835          
1 69500U 26131Y   26188.58335648 -.02388127  00000+0 -19546-1 0  9998
2 69500  97.2850 210.0727 0001613  88.9511  47.6202 15.74018684  4251
STARLINK-37843          
1 69501U 26131Z   26188.58335648 -.02385656  00000+0 -20571-1 0  9993
2 69501  97.2852 210.0723 0001667  86.7452  47.8055 15.72806618  5348
STARS-X                 
1 69502U 26132A   26187.64611769  .00001592  00000+0  13573-3 0  9998
2 69502  97.6881 251.0633 0013806 196.1421 163.9364 14.99090739  3696
PETREL                  
1 69503U 26132B   26188.11191202  .00001175  00000+0  10125-3 0  9994
2 69503  97.6910 251.5359 0013723 196.3653 163.7129 14.99171530  3761
BRO-22                  
1 69504U 26132C   26188.16823682  .00001049  00000+0  89450-4 0  9992
2 69504  97.6834 251.5926 0015697 210.1194 149.9128 14.99792054  3770
HORN-L                  
1 69505U 26132D   26188.41925220  .00002188  00000+0  13764-3 0  9991
2 69505  97.6734 252.0105 0024827 234.3210 125.5708 15.10057270  3825
VERTECS                 
1 69506U 26132E   26188.14913919  .00001658  00000+0  13443-3 0  9999
2 69506  97.6836 251.6286 0014763 233.4745 126.5120 15.00972779  3766
HORN-R                  
1 69507U 26132F   26187.71885431  .00001557  00000+0  11332-3 0  9992
2 69507  97.6691 251.2744 0019544 230.1940 129.7567 15.05152725  3704
STARLINK-37536          
1 69508U 26133A   26188.58335648  .00060884  00000+0  10939-2 0  9999
2 69508  53.1596 221.2496 0001016  64.8382 317.3058 15.49317723  5255
STARLINK-37341          
1 69509U 26133B   26188.58335648  .00059663  00000+0  10744-2 0  9997
2 69509  53.1595 221.2698 0001686  77.5690 294.4390 15.49261885  5256
STARLINK-36536          
1 69510U 26133C   26188.58335648 -.02644567  00000+0 -48907-1 0  9997
2 69510  53.1594 220.5266 0001309  65.8690 313.1632 15.52081951  5191
STARLINK-37420          
1 69511U 26133D   26188.58335648 -.02194724  00000+0 -34081-1 0  9991
2 69511  53.1602 220.3013 0001049  62.1831  67.2461 15.56725068  5148
STARLINK-37511          
1 69512U 26133E   26188.58335648 -.02428861  00000+0 -41376-1 0  9999
2 69512  53.1597 220.3161 0001915  57.5472  65.1576 15.54617420  5141
STARLINK-37552          
1 69513U 26133F   26188.58065917  .00032559  00000+0  59002-3 0  9997
2 69513  53.1595 221.2729 0000695 237.9052 122.1889 15.49357053  5241
STARLINK-37607          
1 69514U 26133G   26188.58335648 -.02074903  00000+0 -39683-1 0  9993
2 69514  53.1598 220.3453 0001296  40.0178  67.7342 15.50863355  5145
