OBJECT_NAME,OBJECT_ID,EPOCH,MEAN_MOTION,ECCENTRICITY,INCLINATION,RA_OF_ASC_NODE,ARG_OF_PERICENTER,MEAN_ANOMALY,EPHEMERIS_TYPE,CLASSIFICATION_TYPE,NORAD_CAT_ID,ELEMENT_SET_NO,REV_AT_EPOCH,BSTAR,MEAN_MOTION_DOT,MEAN_MOTION_DDOT
STARLINK-37892,2026-131H,2026-07-06T14:48:09.899136,15.80794617,.00007541,97.2849,209.0344,81.8627,278.2727,0,U,69485,999,523,.56622374E-3,.109579E-2,0
STARLINK-37893,2026-131J,2026-07-06T13:15:54.591552,15.80806533,.00013796,97.2853,208.9693,94.8147,265.3279,0,U,69486,999,522,.93923771E-3,.183522E-2,0
STARLINK-37842,2026-131K,2026-07-07T14:00:01.999872,15.74530490,.00014549,97.2853,210.0588,75.9317,16.3496,0,U,69487,999,528,-.18800759E-1,-.2354208E-1,0
STARLINK-37449,2026-131L,2026-07-07T05:56:26.648160,15.80856085,.00011741,97.2850,209.7079,39.6063,320.5291,0,U,69488,999,533,.83027428E-3,.162181E-2,0
STARLINK-37831,2026-131M,2026-07-07T14:00:01.999872,15.71376869,.00014318,97.2845,210.0571,88.1139,355.6480,0,U,69489,999,392,-.20500422E-1,-.225697E-1,0
STARLINK-37879,2026-131N,2026-07-07T14:00:01.999872,15.75219170,.00018612,97.2852,210.0625,78.1505,26.6186,0,U,69490,999,528,-.19189644E-1,-.2458709E-1,0
STARLINK-37856,2026-131P,2026-07-07T00:00:40.889664,15.80934106,.00012026,97.2847,209.4317,133.8142,226.3225,0,U,69491,999,529,.17171046E-2,.343921E-2,0
STARLINK-37568,2026-131Q,2026-07-07T14:00:01.999872,15.74410570,.00016657,97.2853,210.0632,86.1819,26.5839,0,U,69492,999,537,-.19267973E-1,-.2393721E-1,0
STARLINK-37855,2026-131R,2026-07-07T06:00:58.748544,15.80795086,.0001551,97.2851,209.7032,0.3028,359.8240,0,U,69493,999,533,.99590193E-3,.194754E-2,0
STARLINK-37854,2026-131S,2026-07-07T14:00:01.999872,15.80154523,.00016278,97.2846,210.0527,93.3789,351.8636,0,U,69494,999,534,-.15105998E-1,-.2422503E-1,0
STARLINK-37789,2026-131T,2026-07-07T14:00:01.999872,15.76373519,.00018214,97.2851,210.0712,88.7752,44.1778,0,U,69495,999,536,-.17583462E-1,-.2383436E-1,0
STARLINK-37839,2026-131U,2026-07-07T14:00:01.999872,15.78252122,.0001814,97.2847,210.0573,81.9638,15.0821,0,U,69496,999,534,-.16804134E-1,-.2463846E-1,0
STARLINK-37798,2026-131V,2026-07-07T14:00:01.999872,15.76626425,.00017643,97.2853,210.0740,87.7801,50.2671,0,U,69497,999,534,-.17632544E-1,-.2412147E-1,0
STARLINK-37853,2026-131W,2026-07-07T11:46:59.255904,15.80919431,.00009902,97.2855,209.9875,21.5254,338.6056,0,U,69498,999,411,.10915366E-2,.215191E-2,0
STARLINK-37849,2026-131X,2026-07-07T14:00:01.999872,15.73510797,.00016981,97.2852,210.0750,88.7733,54.3225,0,U,69499,999,536,-.20487991E-1,-.2439725E-1,0
STARLINK-37835,2026-131Y,2026-07-07T14:00:01.999872,15.74018684,.00016133,97.2850,210.0727,88.9511,47.6202,0,U,69500,999,425,-.19546384E-1,-.2388127E-1,0
STARLINK-37843,2026-131Z,2026-07-07T14:00:01.999872,15.72806618,.00016677,97.2852,210.0723,86.7452,47.8055,0,U,69501,999,534,-.20571318E-1,-.2385656E-1,0
STARS-X,2026-132A,2026-07-06T15:30:24.568416,14.99090739,.00138068,97.6881,251.0633,196.1421,163.9364,0,U,69502,999,369,.1357303E-3,.1592E-4,0
PETREL,2026-132B,2026-07-07T02:41:09.198528,14.99171530,.00137231,97.6910,251.5359,196.3653,163.7129,0,U,69503,999,376,.10125159E-3,.1175E-4,0
BRO-22,2026-132C,2026-07-07T04:02:15.661248,14.99792054,.00156973,97.6834,251.5926,210.1194,149.9128,0,U,69504,999,377,.89449508E-4,.1049E-4,0
HORN-L,2026-132D,2026-07-07T10:03:43.390080,15.10057270,.00248271,97.6734,252.0105,234.3210,125.5708,0,U,69505,999,382,.13764206E-3,.2188E-4,0
VERTECS,2026-132E,2026-07-07T03:34:45.626016,15.00972779,.00147638,97.6836,251.6286,233.4745,126.5120,0,U,69506,999,376,.13443221E-3,.1658E-4,0
HORN-R,2026-132F,2026-07-06T17:15:09.012384,15.05152725,.00195443,97.6691,251.2744,230.1940,129.7567,0,U,69507,999,370,.11331909E-3,.1557E-4,0
STARLINK-37536,2026-133A,2026-07-07T14:00:01.999872,15.49317723,.00010162,53.1596,221.2496,64.8382,317.3058,0,U,69508,999,525,.10938923E-2,.60884E-3,0
STARLINK-37341,2026-133B,2026-07-07T14:00:01.999872,15.49261885,.00016866,53.1595,221.2698,77.5690,294.4390,0,U,69509,999,525,.10743711E-2,.59663E-3,0
STARLINK-36536,2026-133C,2026-07-07T14:00:01.999872,15.52081951,.00013092,53.1594,220.5266,65.8690,313.1632,0,U,69510,999,519,-.48906525E-1,-.2644567E-1,0
STARLINK-37420,2026-133D,2026-07-07T14:00:01.999872,15.56725068,.00010493,53.1602,220.3013,62.1831,67.2461,0,U,69511,999,514,-.34081199E-1,-.2194724E-1,0
STARLINK-37511,2026-133E,2026-07-07T14:00:01.999872,15.54617420,.00019152,53.1597,220.3161,57.5472,65.1576,0,U,69512,999,514,-.41376253E-1,-.2428861E-1,0
STARLINK-37552,2026-133F,2026-07-07T13:56:08.952288,15.49357053,.00006951,53.1595,221.2729,237.9052,122.1889,0,U,69513,999,524,.59002096E-3,.32559E-3,0
STARLINK-37607,2026-133G,2026-07-07T14:00:01.999872,15.50863355,.00012968,53.1598,220.3453,40.0178,67.7342,0,U,69514,999,514,-.39682797E-1,-.2074903E-1,0
